COSMOS 2219
1 22219U 92076A   26115.84479253  .00000385  00000+0  22672-3 0  9994
2 22219  71.0595 279.4911 0016826 132.3603 227.8948 14.14095892725040
SL-16 R/B
1 22220U 92076B   26115.66709434 -.00000196  00000+0 -73792-4 0  9995
2 22220  70.9982  89.4155 0012067  13.1404 159.2988 14.16865451728488
COSMOS 2221
1 22236U 92080A   26115.78300402  .00001576  00000+0  13659-3 0  9998
2 22236  82.5046 233.9601 0014983  39.5394 320.6918 14.96388480787837
SL-16 R/B
1 22285U 92093B   26115.80566880  .00000351  00000+0  20429-3 0  9996
2 22285  71.0210 265.3535 0006148 245.8937 114.1543 14.15457616719824
COSMOS 2228
1 22286U 92094A   26115.83447157  .00001851  00000+0  15643-3 0  9994
2 22286  82.5202 192.1773 0019034 140.0354 220.2274 14.97411057783113
SL-16 R/B
1 22566U 93016B   26115.35608727 -.00000260  00000+0 -10895-3 0  9998
2 22566  71.0038 117.1704 0012577 255.2777 104.6952 14.15309940708772
COSMOS 2242
1 22626U 93024A   26115.77052287  .00001687  00000+0  14494-3 0  9995
2 22626  82.5203 221.6775 0017285 143.3813 216.8595 14.96743392787439
SL-16 R/B
1 22803U 93059B   26115.83678469  .00000149  00000+0  97292-4 0  9993
2 22803  70.9893 271.7001 0015845 144.5873 215.6306 14.17238794686218
ARIANE 40 R/B
1 22830U 93061H   26115.76397105  .00000150  00000+0  70616-4 0  9996
2 22830  98.4844 183.7037 0011601 140.5762 219.6269 14.32884303700847
COSMOS 2278
1 23087U 94023A   26115.62890806  .00000201  00000+0  12985-3 0  9992
2 23087  71.0534  76.8888 0010488 308.0079  52.0095 14.14387264651446
SL-16 R/B
1 23088U 94023B   26115.79558354 -.00000046  00000+0  98274-6 0  9996
2 23088  71.0001 331.9621 0005134 241.9391 118.1212 14.15015285652752
SL-16 R/B
1 23343U 94074B   26115.67429237  .00000351  00000+0  53546-4 0  9999
2 23343  97.7038 144.5737 0008017  72.9404  41.3522 14.79455989694191
SL-16 R/B
1 23405U 94077B   26115.82949345  .00000074  00000+0  62361-4 0  9992
2 23405  70.9828 253.3112 0000398 119.2966 240.8196 14.15572431622903
